{"type": "FeatureCollection", "features": [ {"type": "Feature", "properties": {"norad_id": 41556, "name": "ZIYUAN 3-02 (ZY 3-02)", "group": "resource", "lat": -35.105705130514146, "lon": 72.59553127905862, "alt_km": 510.39794495985916, "timestamp": "2025-12-19T06:59:43.561362+00:00", "meta": {"OBJECT_NAME": "ZIYUAN 3-02 (ZY 3-02)", "OBJECT_ID": "2016-033A", "EPOCH": "2025-12-18T23:15:26.150688", "MEAN_MOTION": 15.21141551, "ECCENTRICITY": 0.00109475, "INCLINATION": 97.4044, "RA_OF_ASC_NODE": 67.0334, "ARG_OF_PERICENTER": 222.8821, "MEAN_ANOMALY": 137.1562, "EPHEMERIS_TYPE": 0, "CLASSIFICATION_TYPE": "U", "NORAD_CAT_ID": 41556, "ELEMENT_SET_NO": 999, "REV_AT_EPOCH": 53058, "BSTAR": 0.00027295111, "MEAN_MOTION_DOT": 6.018e-05, "MEAN_MOTION_DDOT": 0}, "tle": {"line1": "1 41556U 16033A   25352.96905267  .00006018  00000+0  27295-3 0  9997", "line2": "2 41556  97.4044  67.0334 0010947 222.8821 137.1562 15.21141551530582"}}, "geometry": {"type": "Point", "coordinates": [72.59553127905862, -35.105705130514146]}}, {"type": "Feature", "properties": {"norad_id": 41599, "name": "CARTOSAT-2C", "group": "resource", "lat": -38.35173653648962, "lon": -135.48932832039318, "alt_km": 522.5672822344877, "timestamp": "2025-12-19T06:59:43.561372+00:00", "meta": {"OBJECT_NAME": "CARTOSAT-2C", "OBJECT_ID": "2016-040A", "EPOCH": "2025-12-18T23:42:46.903968", "MEAN_MOTION": 15.19164777, "ECCENTRICITY": 0.00112123, "INCLINATION": 97.4763, "RA_OF_ASC_NODE": 50.1745, "ARG_OF_PERICENTER": 43.6035, "MEAN_ANOMALY": 316.6083, "EPHEMERIS_TYPE": 0, "CLASSIFICATION_TYPE": "U", "NORAD_CAT_ID": 41599, "ELEMENT_SET_NO": 999, "REV_AT_EPOCH": 52635, "BSTAR": 7.5465712e-05, "MEAN_MOTION_DOT": 1.52e-05, "MEAN_MOTION_DDOT": 0}, "tle": {"line1": "1 41599U 16040A   25352.98804287  .00001520  00000+0  75466-4 0  9991", "line2": "2 41599  97.4763  50.1745 0011212  43.6035 316.6083 15.19164777526352"}}, "geometry": {"type": "Point", "coordinates": [-135.48932832039318, -38.35173653648962]}}, {"type": "Feature", "properties": {"norad_id": 41601, "name": "SKYSAT-C1", "group": "resource", "lat": -49.435677099886284, "lon": -158.29455376293998, "alt_km": 475.3316422791049, "timestamp": "2025-12-19T06:59:43.561382+00:00", "meta": {"OBJECT_NAME": "SKYSAT-C1", "OBJECT_ID": "2016-040C", "EPOCH": "2025-12-18T14:19:35.767200", "MEAN_MOTION": 15.3269388, "ECCENTRICITY": 0.00016646, "INCLINATION": 96.9818, "RA_OF_ASC_NODE": 29.2807, "ARG_OF_PERICENTER": 356.1128, "MEAN_ANOMALY": 4.0102, "EPHEMERIS_TYPE": 0, "CLASSIFICATION_TYPE": "U", "NORAD_CAT_ID": 41601, "ELEMENT_SET_NO": 999, "REV_AT_EPOCH": 53017, "BSTAR": 0.00024321745, "MEAN_MOTION_DOT": 7.607e-05, "MEAN_MOTION_DDOT": 0}, "tle": {"line1": "1 41601U 16040C   25352.59694175  .00007607  00000+0  24322-3 0  9991", "line2": "2 41601  96.9818  29.2807 0001664 356.1128   4.0102 15.32693880530174"}}, "geometry": {"type": "Point", "coordinates": [-158.29455376293998, -49.435677099886284]}}, {"type": "Feature", "properties": {"norad_id": 41603, "name": "LAPAN-A3", "group": "resource", "lat": -11.517768148302586, "lon": -7.926295193987629, "alt_km": 470.8151406583447, "timestamp": "2025-12-19T06:59:43.561393+00:00", "meta": {"OBJECT_NAME": "LAPAN-A3", "OBJECT_ID": "2016-040E", "EPOCH": "2025-12-18T23:12:21.292704", "MEAN_MOTION": 15.31600754, "ECCENTRICITY": 0.00090606, "INCLINATION": 97.1423, "RA_OF_ASC_NODE": 350.2967, "ARG_OF_PERICENTER": 308.7776, "MEAN_ANOMALY": 51.2656, "EPHEMERIS_TYPE": 0, "CLASSIFICATION_TYPE": "U", "NORAD_CAT_ID": 41603, "ELEMENT_SET_NO": 999, "REV_AT_EPOCH": 52721, "BSTAR": 0.00010889938, "MEAN_MOTION_DOT": 3.252e-05, "MEAN_MOTION_DDOT": 0}, "tle": {"line1": "1 41603U 16040E   25352.96691311  .00003252  00000+0  10890-3 0  9990", "line2": "2 41603  97.1423 350.2967 0009060 308.7776  51.2656 15.31600754527211"}}, "geometry": {"type": "Point", "coordinates": [-7.926295193987629, -11.517768148302586]}}, {"type": "Feature", "properties": {"norad_id": 41604, "name": "BIROS", "group": "resource", "lat": 48.70157863205287, "lon": -146.88098977820545, "alt_km": 289.33084075871284, "timestamp": "2025-12-19T06:59:43.561403+00:00", "meta": {"OBJECT_NAME": "BIROS", "OBJECT_ID": "2016-040F", "EPOCH": "2025-12-18T15:21:48.240288", "MEAN_MOTION": 15.91957755, "ECCENTRICITY": 0.00036858, "INCLINATION": 97.0683, "RA_OF_ASC_NODE": 24.3187, "ARG_OF_PERICENTER": 135.4463, "MEAN_ANOMALY": 224.7109, "EPHEMERIS_TYPE": 0, "CLASSIFICATION_TYPE": "U", "NORAD_CAT_ID": 41604, "ELEMENT_SET_NO": 999, "REV_AT_EPOCH": 52966, "BSTAR": 0.00057739272, "MEAN_MOTION_DOT": 0.00189106, "MEAN_MOTION_DDOT": 1.5181401e-05}, "tle": {"line1": "1 41604U 16040F   25352.64014167  .00189106  15181-4  57739-3 0  9991", "line2": "2 41604  97.0683  24.3187 0003685 135.4463 224.7109 15.91957755529660"}}, "geometry": {"type": "Point", "coordinates": [-146.88098977820545, 48.70157863205287]}}, {"type": "Feature", "properties": {"norad_id": 41727, "name": "GAOFEN-3", "group": "resource", "lat": -1.765599350594234, "lon": 178.51702284601205, "alt_km": 754.8811828138487, "timestamp": "2025-12-19T06:59:43.561414+00:00", "meta": {"OBJECT_NAME": "GAOFEN-3", "OBJECT_ID": "2016-049A", "EPOCH": "2025-12-18T23:29:44.037888", "MEAN_MOTION": 14.42215334, "ECCENTRICITY": 0.00012716, "INCLINATION": 98.4034, "RA_OF_ASC_NODE": 358.4704, "ARG_OF_PERICENTER": 58.2815, "MEAN_ANOMALY": 301.8499, "EPHEMERIS_TYPE": 0, "CLASSIFICATION_TYPE": "U", "NORAD_CAT_ID": 41727, "ELEMENT_SET_NO": 999, "REV_AT_EPOCH": 49267, "BSTAR": 4.314107e-05, "MEAN_MOTION_DOT": 9.9e-07, "MEAN_MOTION_DDOT": 0}, "tle": {"line1": "1 41727U 16049A   25352.97898192  .00000099  00000+0  43141-4 0  9995", "line2": "2 41727  98.4034 358.4704 0001271  58.2815 301.8499 14.42215334492673"}}, "geometry": {"type": "Point", "coordinates": [178.51702284601205, -1.765599350594234]}}, {"type": "Feature", "properties": {"norad_id": 41771, "name": "SKYSAT-C4", "group": "resource", "lat": 32.9621299026988, "lon": 13.633236148579655, "alt_km": 437.1494353117914, "timestamp": "2025-12-19T06:59:43.561446+00:00", "meta": {"OBJECT_NAME": "SKYSAT-C4", "OBJECT_ID": "2016-058B", "EPOCH": "2025-12-18T15:16:53.676768", "MEAN_MOTION": 15.42414092, "ECCENTRICITY": 0.00020415, "INCLINATION": 96.9365, "RA_OF_ASC_NODE": 17.5383, "ARG_OF_PERICENTER": 129.8527, "MEAN_ANOMALY": 230.2902, "EPHEMERIS_TYPE": 0, "CLASSIFICATION_TYPE": "U", "NORAD_CAT_ID": 41771, "ELEMENT_SET_NO": 999, "REV_AT_EPOCH": 51758, "BSTAR": 0.00028785396, "MEAN_MOTION_DOT": 0.00012366, "MEAN_MOTION_DDOT": 0}, "tle": {"line1": "1 41771U 16058B   25352.63673237  .00012366  00000+0  28785-3 0  9994", "line2": "2 41771  96.9365  17.5383 0002041 129.8527 230.2902 15.42414092517584"}}, "geometry": {"type": "Point", "coordinates": [13.633236148579655, 32.9621299026988]}}, {"type": "Feature", "properties": {"norad_id": 41772, "name": "SKYSAT-C5", "group": "resource", "lat": 64.64417654380985, "lon": -128.03486900913322, "alt_km": 459.8367330301744, "timestamp": "2025-12-19T06:59:43.561458+00:00", "meta": {"OBJECT_NAME": "SKYSAT-C5", "OBJECT_ID": "2016-058C", "EPOCH": "2025-12-18T16:24:29.449152", "MEAN_MOTION": 15.33979747, "ECCENTRICITY": 0.00037476, "INCLINATION": 97.0754, "RA_OF_ASC_NODE": 36.1878, "ARG_OF_PERICENTER": 264.6502, "MEAN_ANOMALY": 95.4314, "EPHEMERIS_TYPE": 0, "CLASSIFICATION_TYPE": "U", "NORAD_CAT_ID": 41772, "ELEMENT_SET_NO": 999, "REV_AT_EPOCH": 51607, "BSTAR": 0.00023205942, "MEAN_MOTION_DOT": 7.556e-05, "MEAN_MOTION_DDOT": 0}, "tle": {"line1": "1 41772U 16058C   25352.68367418  .00007556  00000+0  23206-3 0  9999", "line2": "2 41772  97.0754  36.1878 0003747 264.6502  95.4314 15.33979747516074"}}, "geometry": {"type": "Point", "coordinates": [-128.03486900913322, 64.64417654380985]}}, {"type": "Feature", "properties": {"norad_id": 41773, "name": "SKYSAT-C2", "group": "resource", "lat": -20.368752336300286, "lon": -165.0868309915024, "alt_km": 461.5535453762295, "timestamp": "2025-12-19T06:59:43.561469+00:00", "meta": {"OBJECT_NAME": "SKYSAT-C2", "OBJECT_ID": "2016-058D", "EPOCH": "2025-12-18T14:30:19.757376", "MEAN_MOTION": 15.37400266, "ECCENTRICITY": 0.00035987, "INCLINATION": 97.0353, "RA_OF_ASC_NODE": 16.8831, "ARG_OF_PERICENTER": 18.6514, "MEAN_ANOMALY": 341.4862, "EPHEMERIS_TYPE": 0, "CLASSIFICATION_TYPE": "U", "NORAD_CAT_ID": 41773, "ELEMENT_SET_NO": 999, "REV_AT_EPOCH": 51726, "BSTAR": 0.00026153985, "MEAN_MOTION_DOT": 9.515e-05, "MEAN_MOTION_DDOT": 0}, "tle": {"line1": "1 41773U 16058D   25352.60439534  .00009515  00000+0  26154-3 0  9993", "line2": "2 41773  97.0353  16.8831 0003598  18.6514 341.4862 15.37400266517261"}}, "geometry": {"type": "Point", "coordinates": [-165.0868309915024, -20.368752336300286]}}, {"type": "Feature", "properties": {"norad_id": 41774, "name": "SKYSAT-C3", "group": "resource", "lat": -17.79300135864971, "lon": -155.50351687347253, "alt_km": 437.6719422492097, "timestamp": "2025-12-19T06:59:43.561480+00:00", "meta": {"OBJECT_NAME": "SKYSAT-C3", "OBJECT_ID": "2016-058E", "EPOCH": "2025-12-18T14:35:37.329216", "MEAN_MOTION": 15.44601646, "ECCENTRICITY": 0.00018498, "INCLINATION": 96.9291, "RA_OF_ASC_NODE": 26.0815, "ARG_OF_PERICENTER": 107.3542, "MEAN_ANOMALY": 252.791, "EPHEMERIS_TYPE": 0, "CLASSIFICATION_TYPE": "U", "NORAD_CAT_ID": 41774, "ELEMENT_SET_NO": 999, "REV_AT_EPOCH": 51816, "BSTAR": 0.00033767466, "MEAN_MOTION_DOT": 0.00015636, "MEAN_MOTION_DDOT": 0}, "tle": {"line1": "1 41774U 16058E   25352.60807094  .00015636  00000+0  33767-3 0  9993", "line2": "2 41774  96.9291  26.0815 0001849 107.3542 252.7910 15.44601646518161"}}, "geometry": {"type": "Point", "coordinates": [-155.50351687347253, -17.79300135864971]}}]}